NORAD_CAT_ID,OBJECT_NAME,OBJECT_TYPE,EPOCH,MEAN_MOTION,ECCENTRICITY,INCLINATION,RA_OF_ASC_NODE,ARG_OF_PERICENTER,MEAN_ANOMALY,BSTAR,MEAN_MOTION_DOT,MEAN_MOTION_DDOT,TLE_LINE0,TLE_LINE1,TLE_LINE2,SEMIMAJOR_AXIS,PERIOD,APOGEE,PERIGEE,DECAYED
52866.0,STARLINK-4272,PAYLOAD,2023-06-09 11:07:02,15.08841498,9.94e-05,53.216,212.2688,77.1272,282.9832,6.9142e-05,8.13e-06,0.0,0 STARLINK-4272,1 52866U 22062AN  23160.46321776  .00000813  00000-0  69142-4 0  9995,2 52866  53.2160 212.2688 0000994  77.1272 282.9832 15.08841498 54813,6917.876,95.437,540.428,539.053,0.0
52866.0,STARLINK-4272,PAYLOAD,2023-06-09 20:39:20,15.08839158,0.0001006,53.2162,210.4851,82.231,277.8796,6.8813e-05,8.08e-06,0.0,0 STARLINK-4272,1 52866U 22062AN  23160.86065877  .00000808  00000-0  68813-4 0  9994,2 52866  53.2162 210.4851 0001006  82.2310 277.8796 15.08839158 54386,6917.883,95.438,540.444,539.052,0.0
52866.0,STARLINK-4272,PAYLOAD,2023-06-10 12:33:12,15.08841687,9.79e-05,53.216,207.511,86.2172,273.8932,4.0118e-05,3.51e-06,0.0,0 STARLINK-4272,1 52866U 22062AN  23161.52305836  .00000351  00000-0  40118-4 0  9991,2 52866  53.2160 207.5110 0000979  86.2172 273.8932 15.08841687 54486,6917.875,95.437,540.417,539.063,0.0
52866.0,STARLINK-4272,PAYLOAD,2023-06-10 20:30:08,15.08839345,9.72e-05,53.216,206.0241,85.8969,274.2134,3.1618e-05,2.15e-06,0.0,0 STARLINK-4272,1 52866U 22062AN  23161.85425988  .00000215  00000-0  31618-4 0  9992,2 52866  53.2160 206.0241 0000972  85.8969 274.2134 15.08839345 54530,6917.882,95.438,540.42,539.075,0.0
52866.0,STARLINK-4272,PAYLOAD,2023-06-11 12:23:59,15.08842176,9.8e-05,53.2159,203.0504,86.8935,273.217,3.439e-05,2.6e-06,0.0,0 STARLINK-4272,1 52866U 22062AN  23162.51665795  .00000260  00000-0  34390-4 0  9998,2 52866  53.2159 203.0504 0000980  86.8935 273.2170 15.08842176 54636,6917.874,95.437,540.417,539.061,0.0
52866.0,STARLINK-4272,PAYLOAD,2023-06-11 20:20:54,15.0884127,9.59e-05,53.2161,201.5633,87.8926,272.2176,4.6848e-05,4.58e-06,0.0,0 STARLINK-4272,1 52866U 22062AN  23162.84785762  .00000458  00000-0  46848-4 0  9991,2 52866  53.2161 201.5633 0000959  87.8926 272.2176 15.08841270 54686,6917.877,95.437,540.405,539.078,0.0
52866.0,STARLINK-4272,PAYLOAD,2023-06-12 02:42:27,15.08840484,9.61e-05,53.216,200.3738,87.4957,272.6145,5.2021e-05,5.4e-06,0.0,0 STARLINK-4272,1 52866U 22062AN  23163.11281776  .00000540  00000-0  52021-4 0  9990,2 52866  53.2160 200.3738 0000961  87.4957 272.6145 15.08840484 55217,6917.879,95.438,540.409,539.079,0.0
52866.0,STARLINK-4272,PAYLOAD,2023-06-12 09:03:59,15.08842683,9.68e-05,53.2158,199.1846,86.1872,273.9231,6.7167e-05,7.81e-06,0.0,0 STARLINK-4272,1 52866U 22062AN  23163.37777568  .00000781  00000-0  67167-4 0  9991,2 52866  53.2158 199.1846 0000968  86.1872 273.9231 15.08842683 54760,6917.872,95.437,540.407,539.068,0.0
52866.0,STARLINK-4272,PAYLOAD,2023-06-13 02:33:15,15.08834372,9.64e-05,53.2155,195.9139,86.0364,274.0738,-3.4681e-07,-2.93e-06,0.0,0 STARLINK-4272,1 52866U 22062AN  23164.10642378 -.00000293  00000-0 -34681-6 0  9990,2 52866  53.2155 195.9139 0000964  86.0364 274.0738 15.08834372 55364,6917.898,95.438,540.429,539.096,0.0
52866.0,STARLINK-4272,PAYLOAD,2023-06-13 18:27:06,15.08834443,9.7e-05,53.2157,192.9403,84.3531,275.7572,-1.7524e-05,-5.67e-06,0.0,0 STARLINK-4272,1 52866U 22062AN  23164.76882604 -.00000567  00000-0 -17524-4 0  9999,2 52866  53.2157 192.9403 0000970  84.3531 275.7572 15.08834443 54970,6917.897,95.438,540.433,539.091,0.0
52866.0,STARLINK-4272,PAYLOAD,2023-06-14 00:48:38,15.0884244,9.42e-05,53.2155,191.7498,84.9212,275.1887,6.033e-05,6.73e-06,0.0,0 STARLINK-4272,1 52866U 22062AN  23165.03377776  .00000673  00000-0  60330-4 0  9998,2 52866  53.2155 191.7498 0000942  84.9212 275.1887 15.08842440 55509,6917.873,95.437,540.39,539.086,0.0
52866.0,STARLINK-4272,PAYLOAD,2023-06-14 18:17:52,15.08840567,9.08e-05,53.2152,188.4773,75.1001,285.0092,7.0454e-05,8.34e-06,0.0,0 STARLINK-4272,1 52866U 22062AN  23165.76241826  .00000834  00000-0  70454-4 0  9991,2 52866  53.2152 188.4773 0000908  75.1001 285.0092 15.08840567 55129,6917.879,95.438,540.372,539.116,0.0
52866.0,STARLINK-4272,PAYLOAD,2023-06-15 00:39:26,15.08829586,9.75e-05,53.2162,187.29,106.0307,254.0792,4.1008e-05,3.65e-06,0.0,0 STARLINK-4272,1 52866U 22062AN  23166.02738651  .00000365  00000-0  41008-4 0  9990,2 52866  53.2162 187.2900 0000975 106.0307 254.0792 15.08829586 55655,6917.912,95.438,540.452,539.103,0.0
52866.0,STARLINK-4272,PAYLOAD,2023-06-15 07:00:59,15.08826296,8.98e-05,53.2155,186.0998,85.9991,274.1104,6.4487e-06,-1.85e-06,0.0,0 STARLINK-4272,1 52866U 22062AN  23166.29235204 -.00000185  00000-0  64487-5 0  9993,2 52866  53.2155 186.0998 0000898  85.9991 274.1104 15.08826296 55205,6917.922,95.438,540.409,539.166,0.0
52866.0,STARLINK-4272,PAYLOAD,2023-06-15 18:08:41,15.08829304,9.17e-05,53.2156,184.0184,90.1374,269.9723,-1.771e-05,-5.69e-06,0.0,0 STARLINK-4272,1 52866U 22062AN  23166.75603406 -.00000569  00000-0 -17710-4 0  9990,2 52866  53.2156 184.0184 0000917  90.1374 269.9723 15.08829304 55275,6917.913,95.438,540.412,539.144,0.0
52866.0,STARLINK-4272,PAYLOAD,2023-06-16 02:05:36,15.08835066,9.25e-05,53.2155,182.5316,90.171,269.9388,-6.4095e-05,-1.307e-05,0.0,0 STARLINK-4272,1 52866U 22062AN  23167.08723352 -.00001307  00000-0 -64095-4 0  9999,2 52866  53.2155 182.5316 0000925  90.1710 269.9388 15.08835066 55816,6917.895,95.438,540.4,539.121,0.0
52866.0,STARLINK-4272,PAYLOAD,2023-06-16 08:27:09,15.08837464,9.55e-05,53.2156,181.3422,91.9973,268.1128,-3.8533e-05,-9.01e-06,0.0,0 STARLINK-4272,1 52866U 22062AN  23167.35219193 -.00000901  00000-0 -38533-4 0  9999,2 52866  53.2156 181.3422 0000955  91.9973 268.1128 15.08837464 55362,6917.888,95.438,540.414,539.092,0.0
52866.0,STARLINK-4272,PAYLOAD,2023-06-16 17:59:28,15.08834469,9.98e-05,53.2162,179.5579,90.6596,269.451,5.6965e-05,6.19e-06,0.0,0 STARLINK-4272,1 52866U 22062AN  23167.74963211  .00000619  00000-0  56965-4 0  9992,2 52866  53.2162 179.5579 0000998  90.6596 269.4510 15.08834469 55423,6917.897,95.438,540.453,539.072,0.0
52866.0,STARLINK-4272,PAYLOAD,2023-06-17 06:42:33,15.0883487,9.86e-05,53.216,177.1793,90.3514,269.7591,0.00011707,1.576e-05,0.0,0 STARLINK-4272,1 52866U 22062AN  23168.27955174  .00001576  00000-0  11707-3 0  9997,2 52866  53.2160 177.1793 0000986  90.3514 269.7591 15.08834870 55997,6917.896,95.438,540.443,539.079,0.0
52866.0,STARLINK-4272,PAYLOAD,2023-06-17 08:17:56,15.08835698,9.99e-05,53.216,176.882,90.2334,269.8772,0.00012316,1.673e-05,0.0,0 STARLINK-4272,1 52866U 22062AN  23168.34579135  .00001673  00000-0  12316-3 0  9999,2 52866  53.2160 176.8820 0000999  90.2334 269.8772 15.08835698 55516,6917.894,95.438,540.45,539.067,0.0
52866.0,STARLINK-4272,PAYLOAD,2023-06-17 17:50:15,15.08837282,0.0001,53.216,175.0978,89.5539,270.5568,0.000116,1.559e-05,0.0,0 STARLINK-4272,1 52866U 22062AN  23168.74323157  .00001559  00000-0  11600-3 0  9992,2 52866  53.2160 175.0978 0001000  89.5539 270.5568 15.08837282 55572,6917.889,95.438,540.445,539.062,0.0
52866.0,STARLINK-4272,PAYLOAD,2023-06-18 06:33:20,15.08841305,0.0001001,53.216,172.7189,89.3902,270.7205,0.00010784,1.429e-05,0.0,0 STARLINK-4272,1 52866U 22062AN  23169.27314966  .00001429  00000-0  10784-3 0  9997,2 52866  53.2160 172.7189 0001001  89.3902 270.7205 15.08841305 55653,6917.876,95.437,540.434,539.049,0.0
52866.0,STARLINK-4272,PAYLOAD,2023-06-18 17:41:02,15.08842697,0.0001011,53.2158,170.6372,88.5113,271.5995,6.9055e-05,8.11e-06,0.0,0 STARLINK-4272,1 52866U 22062AN  23169.73682898  .00000811  00000-0  69055-4 0  9990,2 52866  53.2158 170.6372 0001011  88.5113 271.5995 15.08842697 56210,6917.872,95.437,540.437,539.038,0.0
52866.0,STARLINK-4272,PAYLOAD,2023-06-19 09:34:53,15.08844716,0.0001033,53.2158,167.6636,88.8679,271.2432,4.2734e-05,3.92e-06,0.0,0 STARLINK-4272,1 52866U 22062AN  23170.39922678  .00000392  00000-0  42734-4 0  9996,2 52866  53.2158 167.6636 0001033  88.8679 271.2432 15.08844716 55826,6917.866,95.437,540.446,539.016,0.0
52866.0,STARLINK-4272,PAYLOAD,2023-06-19 23:53:21,15.0884013,0.0001056,53.2155,164.9869,90.4123,269.699,-2.0964e-05,-6.21e-06,0.0,0 STARLINK-4272,1 52866U 22062AN  23170.99539059 -.00000621  00000-0 -20964-4 0  9997,2 52866  53.2155 164.9869 0001056  90.4123 269.6990 15.08840130 56400,6917.88,95.438,540.476,539.014,0.0
52866.0,STARLINK-4272,PAYLOAD,2023-06-20 09:25:40,15.08839482,0.0001079,53.2158,163.2027,92.3015,267.8101,-1.3886e-05,-5.09e-06,0.0,0 STARLINK-4272,1 52866U 22062AN  23171.39283022 -.00000509  00000-0 -13886-4 0  9998,2 52866  53.2158 163.2027 0001079  92.3015 267.8101 15.08839482 55970,6917.882,95.438,540.493,539.001,0.0
52866.0,STARLINK-4272,PAYLOAD,2023-06-21 02:54:55,15.08837986,0.0001019,53.2154,159.9317,91.4854,268.6255,-6.1328e-06,-3.85e-06,0.0,0 STARLINK-4272,1 52866U 22062AN  23172.12147093 -.00000385  00000-0 -61328-5 0  9994,2 52866  53.2154 159.9317 0001019  91.4854 268.6255 15.08837986 56578,6917.887,95.438,540.456,539.047,0.0
52866.0,STARLINK-4272,PAYLOAD,2023-06-21 06:05:41,15.08838474,0.0001051,53.2157,159.3372,91.7302,268.3811,9.5329e-07,-2.73e-06,0.0,0 STARLINK-4272,1 52866U 22062AN  23172.25395064 -.00000273  00000-0  95329-6 0  9995,2 52866  53.2157 159.3372 0001051  91.7302 268.3811 15.08838474 56100,6917.885,95.438,540.477,539.023,0.0
52866.0,STARLINK-4272,PAYLOAD,2023-06-21 15:38:00,15.08838776,0.000105,53.2158,157.5528,91.0055,269.1058,9.1859e-06,-1.42e-06,0.0,0 STARLINK-4272,1 52866U 22062AN  23172.65139042 -.00000142  00000-0  91859-5 0  9999,2 52866  53.2158 157.5528 0001050  91.0055 269.1058 15.08838776 56164,6917.884,95.438,540.476,539.023,0.0
52866.0,STARLINK-4272,PAYLOAD,2023-06-22 07:31:52,15.08833455,0.000111,53.2166,154.581,89.618,270.4939,6.6193e-06,-1.82e-06,0.0,0 STARLINK-4272,1 52866U 22062AN  23173.31379674 -.00000182  00000-0  66193-5 0  9997,2 52866  53.2166 154.5810 0001110  89.6180 270.4939 15.08833455 56750,6917.9,95.438,540.533,538.998,0.0
